[{"OBJECT_NAME":"STARLINK-5575","OBJECT_ID":"2023-013BC","EPOCH":"2025-10-12T01:00:55.418976","MEAN_MOTION":15.02534716,"ECCENTRICITY":0.00011097,"INCLINATION":43.0042,"RA_OF_ASC_NODE":40.6244,"ARG_OF_PERICENTER":267.3995,"MEAN_ANOMALY":92.672,"EPHEMERIS_TYPE":0,"CLASSIFICATION_TYPE":"U","NORAD_CAT_ID":55381,"ELEMENT_SET_NO":999,"REV_AT_EPOCH":14920,"BSTAR":5.1859527e-5,"MEAN_MOTION_DOT":4.97e-6,"MEAN_MOTION_DDOT":0},{"OBJECT_NAME":"STARLINK-5576","OBJECT_ID":"2023-013BD","EPOCH":"2025-10-12T01:10:31.062432","MEAN_MOTION":15.02554283,"ECCENTRICITY":0.00016665,"INCLINATION":43.0066,"RA_OF_ASC_NODE":40.6806,"ARG_OF_PERICENTER":283.9182,"MEAN_ANOMALY":76.1475,"EPHEMERIS_TYPE":0,"CLASSIFICATION_TYPE":"U","NORAD_CAT_ID":55382,"ELEMENT_SET_NO":999,"REV_AT_EPOCH":14920,"BSTAR":-0.00049723618,"MEAN_MOTION_DOT":-6.917e-5,"MEAN_MOTION_DDOT":0},{"OBJECT_NAME":"STARLINK-5531","OBJECT_ID":"2023-013BE","EPOCH":"2025-10-12T06:03:13.594752","MEAN_MOTION":15.02561806,"ECCENTRICITY":0.00021381,"INCLINATION":43.0051,"RA_OF_ASC_NODE":13.6215,"ARG_OF_PERICENTER":276.868,"MEAN_ANOMALY":83.1919,"EPHEMERIS_TYPE":0,"CLASSIFICATION_TYPE":"U","NORAD_CAT_ID":55383,"ELEMENT_SET_NO":999,"REV_AT_EPOCH":14953,"BSTAR":-0.00021165231,"MEAN_MOTION_DOT":-3.064e-5,"MEAN_MOTION_DDOT":0},{"OBJECT_NAME":"STARLINK-5537","OBJECT_ID":"2023-013BF","EPOCH":"2025-10-12T01:07:20.462304","MEAN_MOTION":15.02529829,"ECCENTRICITY":0.00016234,"INCLINATION":43.0056,"RA_OF_ASC_NODE":40.6632,"ARG_OF_PERICENTER":259.9799,"MEAN_ANOMALY":100.0861,"EPHEMERIS_TYPE":0,"CLASSIFICATION_TYPE":"U","NORAD_CAT_ID":55384,"ELEMENT_SET_NO":999,"REV_AT_EPOCH":14920,"BSTAR":0.00013901104,"MEAN_MOTION_DOT":1.674e-5,"MEAN_MOTION_DDOT":0},{"OBJECT_NAME":"STARLINK-5556","OBJECT_ID":"2023-013BG","EPOCH":"2025-10-12T00:46:32.669184","MEAN_MOTION":15.02527979,"ECCENTRICITY":0.00015783,"INCLINATION":43.0039,"RA_OF_ASC_NODE":40.553,"ARG_OF_PERICENTER":266.2755,"MEAN_ANOMALY":93.7907,"EPHEMERIS_TYPE":0,"CLASSIFICATION_TYPE":"U","NORAD_CAT_ID":55385,"ELEMENT_SET_NO":999,"REV_AT_EPOCH":14920,"BSTAR":9.4795322e-5,"MEAN_MOTION_DOT":1.077e-5,"MEAN_MOTION_DDOT":0},{"OBJECT_NAME":"STARLINK-5555","OBJECT_ID":"2023-013BH","EPOCH":"2025-10-12T00:51:19.772064","MEAN_MOTION":15.02540859,"ECCENTRICITY":0.00013499,"INCLINATION":43.003,"RA_OF_ASC_NODE":40.5774,"ARG_OF_PERICENTER":265.5929,"MEAN_ANOMALY":94.4759,"EPHEMERIS_TYPE":0,"CLASSIFICATION_TYPE":"U","NORAD_CAT_ID":55386,"ELEMENT_SET_NO":999,"REV_AT_EPOCH":14920,"BSTAR":6.7235553e-5,"MEAN_MOTION_DOT":7.05e-6,"MEAN_MOTION_DDOT":0},{"OBJECT_NAME":"STARLINK-5085","OBJECT_ID":"2023-014B","EPOCH":"2025-10-12T02:19:49.542816","MEAN_MOTION":14.98330971,"ECCENTRICITY":0.00030748,"INCLINATION":69.9996,"RA_OF_ASC_NODE":59.0028,"ARG_OF_PERICENTER":270.0293,"MEAN_ANOMALY":90.0514,"EPHEMERIS_TYPE":0,"CLASSIFICATION_TYPE":"U","NORAD_CAT_ID":55392,"ELEMENT_SET_NO":999,"REV_AT_EPOCH":15029,"BSTAR":5.952867e-6,"MEAN_MOTION_DOT":-2.2e-7,"MEAN_MOTION_DDOT":0},{"OBJECT_NAME":"STARLINK-4786","OBJECT_ID":"2023-014C","EPOCH":"2025-10-11T20:25:44.239008","MEAN_MOTION":14.98279961,"ECCENTRICITY":0.00033037,"INCLINATION":69.9985,"RA_OF_ASC_NODE":79.6309,"ARG_OF_PERICENTER":269.3192,"MEAN_ANOMALY":90.7588,"EPHEMERIS_TYPE":0,"CLASSIFICATION_TYPE":"U","NORAD_CAT_ID":55393,"ELEMENT_SET_NO":999,"REV_AT_EPOCH":14976,"BSTAR":-0.00050328473,"MEAN_MOTION_DOT":-6.085e-5,"MEAN_MOTION_DDOT":0},{"OBJECT_NAME":"STARLINK-5274","OBJECT_ID":"2023-014E","EPOCH":"2025-10-12T04:14:19.451328","MEAN_MOTION":14.98330656,"ECCENTRICITY":0.00026426,"INCLINATION":69.9979,"RA_OF_ASC_NODE":78.7393,"ARG_OF_PERICENTER":265.3346,"MEAN_ANOMALY":94.7511,"EPHEMERIS_TYPE":0,"CLASSIFICATION_TYPE":"U","NORAD_CAT_ID":55395,"ELEMENT_SET_NO":999,"REV_AT_EPOCH":14981,"BSTAR":-0.00014637882,"MEAN_MOTION_DOT":-1.839e-5,"MEAN_MOTION_DDOT":0},{"OBJECT_NAME":"STARLINK-5283","OBJECT_ID":"2023-014F","EPOCH":"2025-10-12T04:20:20.931648","MEAN_MOTION":14.98331123,"ECCENTRICITY":0.00032851,"INCLINATION":69.9987,"RA_OF_ASC_NODE":78.7639,"ARG_OF_PERICENTER":269.2445,"MEAN_ANOMALY":90.8337,"EPHEMERIS_TYPE":0,"CLASSIFICATION_TYPE":"U","NORAD_CAT_ID":55396,"ELEMENT_SET_NO":999,"REV_AT_EPOCH":14981,"BSTAR":0.00018060729,"MEAN_MOTION_DOT":2.063e-5,"MEAN_MOTION_DDOT":0},{"OBJECT_NAME":"STARLINK-5224","OBJECT_ID":"2023-014G","EPOCH":"2025-10-12T01:49:48.581472","MEAN_MOTION":14.98329916,"ECCENTRICITY":0.00031115,"INCLINATION":69.9992,"RA_OF_ASC_NODE":59.3153,"ARG_OF_PERICENTER":270.4238,"MEAN_ANOMALY":89.6565,"EPHEMERIS_TYPE":0,"CLASSIFICATION_TYPE":"U","NORAD_CAT_ID":55397,"ELEMENT_SET_NO":999,"REV_AT_EPOCH":15028,"BSTAR":3.8563497e-5,"MEAN_MOTION_DOT":3.67e-6,"MEAN_MOTION_DDOT":0},{"OBJECT_NAME":"STARLINK-5275","OBJECT_ID":"2023-014H","EPOCH":"2025-10-11T19:07:34.053888","MEAN_MOTION":14.98325379,"ECCENTRICITY":0.00026985,"INCLINATION":69.999,"RA_OF_ASC_NODE":79.8323,"ARG_OF_PERICENTER":275.874,"MEAN_ANOMALY":84.2112,"EPHEMERIS_TYPE":0,"CLASSIFICATION_TYPE":"U","NORAD_CAT_ID":55398,"ELEMENT_SET_NO":999,"REV_AT_EPOCH":14975,"BSTAR":-0.00020035492,"MEAN_MOTION_DOT":-2.482e-5,"MEAN_MOTION_DDOT":0},{"OBJECT_NAME":"STARLINK-5276","OBJECT_ID":"2023-014J","EPOCH":"2025-10-11T20:31:40.763424","MEAN_MOTION":14.98329145,"ECCENTRICITY":0.00028889,"INCLINATION":69.9983,"RA_OF_ASC_NODE":79.6332,"ARG_OF_PERICENTER":271.72,"MEAN_ANOMALY":88.3628,"EPHEMERIS_TYPE":0,"CLASSIFICATION_TYPE":"U","NORAD_CAT_ID":55399,"ELEMENT_SET_NO":999,"REV_AT_EPOCH":14976,"BSTAR":-1.562611e-5,"MEAN_MOTION_DOT":-2.79e-6,"MEAN_MOTION_DDOT":0},{"OBJECT_NAME":"STARLINK-5632","OBJECT_ID":"2023-014K","EPOCH":"2025-10-11T20:55:42.840768","MEAN_MOTION":14.98332321,"ECCENTRICITY":0.00031209,"INCLINATION":69.9989,"RA_OF_ASC_NODE":79.6882,"ARG_OF_PERICENTER":272.4226,"MEAN_ANOMALY":87.6576,"EPHEMERIS_TYPE":0,"CLASSIFICATION_TYPE":"U","NORAD_CAT_ID":55400,"ELEMENT_SET_NO":999,"REV_AT_EPOCH":14976,"BSTAR":7.5564677e-5,"MEAN_MOTION_DOT":8.09e-6,"MEAN_MOTION_DDOT":0},{"OBJECT_NAME":"STARLINK-5076","OBJECT_ID":"2023-014L","EPOCH":"2025-10-11T20:37:41.185344","MEAN_MOTION":14.98331132,"ECCENTRICITY":0.00031285,"INCLINATION":69.9986,"RA_OF_ASC_NODE":79.6483,"ARG_OF_PERICENTER":270.0322,"MEAN_ANOMALY":90.0479,"EPHEMERIS_TYPE":0,"CLASSIFICATION_TYPE":"U","NORAD_CAT_ID":55401,"ELEMENT_SET_NO":999,"REV_AT_EPOCH":14976,"BSTAR":1.070642e-6,"MEAN_MOTION_DOT":-8.0e-7,"MEAN_MOTION_DDOT":0},{"OBJECT_NAME":"STARLINK-5071","OBJECT_ID":"2023-014M","EPOCH":"2025-10-11T19:31:36.471648","MEAN_MOTION":14.98332108,"ECCENTRICITY":0.00030429,"INCLINATION":69.999,"RA_OF_ASC_NODE":79.8916,"ARG_OF_PERICENTER":268.5126,"MEAN_ANOMALY":91.5684,"EPHEMERIS_TYPE":0,"CLASSIFICATION_TYPE":"U","NORAD_CAT_ID":55402,"ELEMENT_SET_NO":999,"REV_AT_EPOCH":14975,"BSTAR":0.00012312793,"MEAN_MOTION_DOT":1.376e-5,"MEAN_MOTION_DDOT":0}]
