55381,STARLINK-5575,2023,95.84,-1.0,+,43.0,Active,0,LEO,USA,USA,Unknown,Unknown,Unknown,1 55381U 23013BC  25285.04230809  .00000497  00000+0  51860-4 0  9992,2 55381  43.0042  40.6244 0001109 267.3995  92.6720 15.02534716149205,15.02534716,0.0001109,LEO
55382,STARLINK-5576,2023,95.84,290.0,+,43.01,Active,1,LEO,USA,USA,Commercial,Communications,Falcon,1 55382U 23013BD  25285.04897063 -.00006917  00000+0 -49724-3 0  9994,2 55382  43.0066  40.6806 0001666 283.9182  76.1475 15.02554283149201,15.02554283,0.0001666,LEO
55383,STARLINK-5531,2023,95.84,290.0,+,43.0,Active,1,LEO,USA,USA,Commercial,Communications,Falcon,1 55383U 23013BE  25285.25224068 -.00003064  00000+0 -21165-3 0  9996,2 55383  43.0051  13.6215 0002138 276.8680  83.1919 15.02561806149535,15.02561806,0.0002138,LEO
55384,STARLINK-5537,2023,95.84,290.0,+,43.0,Active,1,LEO,USA,USA,Commercial,Communications,Falcon,1 55384U 23013BF  25285.04676461  .00001674  00000+0  13901-3 0  9994,2 55384  43.0056  40.6632 0001623 259.9799 100.0861 15.02529829149203,15.02529829,0.0001623,LEO
55385,STARLINK-5556,2023,95.84,290.0,+,43.0,Active,1,LEO,USA,USA,Commercial,Communications,Falcon,1 55385U 23013BG  25285.03232256  .00001077  00000+0  94795-4 0  9992,2 55385  43.0039  40.5530 0001578 266.2755  93.7907 15.02527979149206,15.02527979,0.0001578,LEO
55386,STARLINK-5555,2023,95.84,290.0,+,43.0,Active,1,LEO,USA,USA,Commercial,Communications,Falcon,1 55386U 23013BH  25285.03564551  .00000705  00000+0  67236-4 0  9996,2 55386  43.0030  40.5774 0001349 265.5929  94.4759 15.02540859149204,15.02540859,0.0001349,LEO
55392,STARLINK-5085,2023,96.11,290.0,+,70.0,Active,1,LEO,USA,USA,Commercial,Communications,Falcon,1 55392U 23014B   25285.09710119 -.00000022  00000+0  59529-5 0  9993,2 55392  69.9996  59.0028 0003074 270.0293  90.0514 14.98330971150296,14.98330971,0.0003074,LEO
55393,STARLINK-4786,2023,96.11,290.0,+,70.0,Active,1,LEO,USA,USA,Commercial,Communications,Falcon,1 55393U 23014C   25284.85120647 -.00006085  00000+0 -50328-3 0  9990,2 55393  69.9985  79.6309 0003303 269.3192  90.7588 14.98279961149768,14.98279961,0.0003303,LEO
55395,STARLINK-5274,2023,96.11,290.0,+,70.0,Active,1,LEO,USA,USA,Commercial,Communications,Falcon,1 55395U 23014E   25285.17661402 -.00001839  00000+0 -14638-3 0  9993,2 55395  69.9979  78.7393 0002642 265.3346  94.7511 14.98330656149813,14.98330656,0.0002642,LEO
55396,STARLINK-5283,2023,96.11,290.0,+,70.0,Active,1,LEO,USA,USA,Commercial,Communications,Falcon,1 55396U 23014F   25285.18079782  .00002063  00000+0  18061-3 0  9991,2 55396  69.9987  78.7639 0003285 269.2445  90.8337 14.98331123149816,14.98331123,0.0003285,LEO
55397,STARLINK-5224,2023,96.11,290.0,+,70.0,Active,1,LEO,USA,USA,Commercial,Communications,Falcon,1 55397U 23014G   25285.07625673  .00000367  00000+0  38563-4 0  9991,2 55397  69.9992  59.3153 0003111 270.4238  89.6565 14.98329916150280,14.98329916,0.0003111,LEO
55398,STARLINK-5275,2023,96.11,290.0,+,70.0,Active,1,LEO,USA,USA,Commercial,Communications,Falcon,1 55398U 23014H   25284.79692192 -.00002482  00000+0 -20035-3 0  9996,2 55398  69.9990  79.8323 0002698 275.8740  84.2112 14.98325379149759,14.98325379,0.0002698,LEO
55399,STARLINK-5276,2023,96.11,290.0,+,70.0,Active,1,LEO,USA,USA,Commercial,Communications,Falcon,1 55399U 23014J   25284.85533291 -.00000279  00000+0 -15626-4 0  9991,2 55399  69.9983  79.6332 0002888 271.7200  88.3628 14.98329145149760,14.98329145,0.0002888,LEO
55400,STARLINK-5632,2023,96.11,290.0,+,70.0,Active,1,LEO,USA,USA,Commercial,Communications,Falcon,1 55400U 23014K   25284.87202362  .00000809  00000+0  75565-4 0  9993,2 55400  69.9989  79.6882 0003120 272.4226  87.6576 14.98332321149769,14.98332321,0.000312,LEO
55401,STARLINK-5076,2023,96.11,290.0,+,70.0,Active,1,LEO,USA,USA,Commercial,Communications,Falcon,1 55401U 23014L   25284.85950446 -.00000080  00000+0  10706-5 0  9994,2 55401  69.9986  79.6483 0003128 270.0322  90.0479 14.98331132149762,14.98331132,0.0003128,LEO
55402,STARLINK-5071,2023,96.11,290.0,+,70.0,Active,1,LEO,USA,USA,Commercial,Communications,Falcon,1 55402U 23014M   25284.81361657  .00001376  00000+0  12313-3 0  9993,2 55402  69.9990  79.8916 0003042 268.5126  91.5684 14.98332108149757,14.98332108,0.0003042,LEO
